[{"OBJECT_NAME":"ONEWEB-0446","OBJECT_ID":"2022-012U","EPOCH":"2025-10-24T16:25:12.404640","MEAN_MOTION":13.10375972,"ECCENTRICITY":0.0001799,"INCLINATION":87.877,"RA_OF_ASC_NODE":83.2386,"ARG_OF_PERICENTER":90.939,"MEAN_ANOMALY":269.1944,"EPHEMERIS_TYPE":0,"CLASSIFICATION_TYPE":"U","NORAD_CAT_ID":51640,"ELEMENT_SET_NO":999,"REV_AT_EPOCH":17848,"BSTAR":-0.00016193,"MEAN_MOTION_DOT":-4.4e-7,"MEAN_MOTION_DDOT":0},{"OBJECT_NAME":"ONEWEB-0448","OBJECT_ID":"2022-012V","EPOCH":"2025-10-24T18:22:20.203104","MEAN_MOTION":13.10376083,"ECCENTRICITY":0.0001563,"INCLINATION":87.8771,"RA_OF_ASC_NODE":83.222,"ARG_OF_PERICENTER":97.1082,"MEAN_ANOMALY":263.0223,"EPHEMERIS_TYPE":0,"CLASSIFICATION_TYPE":"U","NORAD_CAT_ID":51641,"ELEMENT_SET_NO":999,"REV_AT_EPOCH":17846,"BSTAR":0.0006179,"MEAN_MOTION_DOT":2.28e-6,"MEAN_MOTION_DDOT":0},{"OBJECT_NAME":"ONEWEB-0449","OBJECT_ID":"2022-012W","EPOCH":"2025-10-24T16:39:33.520608","MEAN_MOTION":13.10375599,"ECCENTRICITY":0.0001226,"INCLINATION":87.8773,"RA_OF_ASC_NODE":83.2057,"ARG_OF_PERICENTER":81.7308,"MEAN_ANOMALY":278.3959,"EPHEMERIS_TYPE":0,"CLASSIFICATION_TYPE":"U","NORAD_CAT_ID":51642,"ELEMENT_SET_NO":999,"REV_AT_EPOCH":17846,"BSTAR":0.0013793,"MEAN_MOTION_DOT":4.94e-6,"MEAN_MOTION_DDOT":0},{"OBJECT_NAME":"ONEWEB-0451","OBJECT_ID":"2022-012X","EPOCH":"2025-10-24T17:32:20.313888","MEAN_MOTION":13.17648923,"ECCENTRICITY":0.0001586,"INCLINATION":87.9121,"RA_OF_ASC_NODE":52.6488,"ARG_OF_PERICENTER":97.9983,"MEAN_ANOMALY":262.1329,"EPHEMERIS_TYPE":0,"CLASSIFICATION_TYPE":"U","NORAD_CAT_ID":51643,"ELEMENT_SET_NO":999,"REV_AT_EPOCH":18265,"BSTAR":-3.2405e-5,"MEAN_MOTION_DOT":0,"MEAN_MOTION_DDOT":0},{"OBJECT_NAME":"ONEWEB-0452","OBJECT_ID":"2022-012Y","EPOCH":"2025-10-24T17:29:53.580768","MEAN_MOTION":13.17648069,"ECCENTRICITY":0.0001383,"INCLINATION":87.9114,"RA_OF_ASC_NODE":52.7083,"ARG_OF_PERICENTER":101.5193,"MEAN_ANOMALY":258.6094,"EPHEMERIS_TYPE":0,"CLASSIFICATION_TYPE":"U","NORAD_CAT_ID":51644,"ELEMENT_SET_NO":999,"REV_AT_EPOCH":18266,"BSTAR":-5.0697e-6,"MEAN_MOTION_DOT":1.1e-7,"MEAN_MOTION_DDOT":0},{"OBJECT_NAME":"ONEWEB-0456","OBJECT_ID":"2022-012AA","EPOCH":"2025-10-24T16:53:54.161376","MEAN_MOTION":13.10372846,"ECCENTRICITY":0.0001667,"INCLINATION":87.8777,"RA_OF_ASC_NODE":83.1693,"ARG_OF_PERICENTER":101.0882,"MEAN_ANOMALY":259.0432,"EPHEMERIS_TYPE":0,"CLASSIFICATION_TYPE":"U","NORAD_CAT_ID":51646,"ELEMENT_SET_NO":999,"REV_AT_EPOCH":17850,"BSTAR":0.0021365,"MEAN_MOTION_DOT":7.59e-6,"MEAN_MOTION_DDOT":0},{"OBJECT_NAME":"ONEWEB-0457","OBJECT_ID":"2022-012AB","EPOCH":"2025-10-24T16:20:25.217088","MEAN_MOTION":13.1037558,"ECCENTRICITY":0.0001581,"INCLINATION":87.877,"RA_OF_ASC_NODE":83.227,"ARG_OF_PERICENTER":79.5414,"MEAN_ANOMALY":280.5891,"EPHEMERIS_TYPE":0,"CLASSIFICATION_TYPE":"U","NORAD_CAT_ID":51647,"ELEMENT_SET_NO":999,"REV_AT_EPOCH":17850,"BSTAR":-0.00086837,"MEAN_MOTION_DOT":-2.9e-6,"MEAN_MOTION_DDOT":0},{"OBJECT_NAME":"ONEWEB-0458","OBJECT_ID":"2022-012AC","EPOCH":"2025-10-24T18:41:28.334688","MEAN_MOTION":13.10373056,"ECCENTRICITY":0.0001386,"INCLINATION":87.8771,"RA_OF_ASC_NODE":83.1782,"ARG_OF_PERICENTER":95.8141,"MEAN_ANOMALY":264.3145,"EPHEMERIS_TYPE":0,"CLASSIFICATION_TYPE":"U","NORAD_CAT_ID":51648,"ELEMENT_SET_NO":999,"REV_AT_EPOCH":17847,"BSTAR":0.001931,"MEAN_MOTION_DOT":6.87e-6,"MEAN_MOTION_DDOT":0},{"OBJECT_NAME":"ONEWEB-0461","OBJECT_ID":"2022-012AD","EPOCH":"2025-10-24T18:01:29.838720","MEAN_MOTION":13.17649259,"ECCENTRICITY":0.0001758,"INCLINATION":87.9124,"RA_OF_ASC_NODE":52.6593,"ARG_OF_PERICENTER":96.0903,"MEAN_ANOMALY":264.0429,"EPHEMERIS_TYPE":0,"CLASSIFICATION_TYPE":"U","NORAD_CAT_ID":51649,"ELEMENT_SET_NO":999,"REV_AT_EPOCH":18288,"BSTAR":2.7204e-5,"MEAN_MOTION_DOT":2.3e-7,"MEAN_MOTION_DDOT":0},{"OBJECT_NAME":"ONEWEB-0463","OBJECT_ID":"2022-012AE","EPOCH":"2025-10-24T17:34:45.935904","MEAN_MOTION":13.17650261,"ECCENTRICITY":0.0001598,"INCLINATION":87.9105,"RA_OF_ASC_NODE":52.7161,"ARG_OF_PERICENTER":100.0187,"MEAN_ANOMALY":260.1125,"EPHEMERIS_TYPE":0,"CLASSIFICATION_TYPE":"U","NORAD_CAT_ID":51650,"ELEMENT_SET_NO":999,"REV_AT_EPOCH":18266,"BSTAR":-3.3548e-6,"MEAN_MOTION_DOT":1.2e-7,"MEAN_MOTION_DDOT":0},{"OBJECT_NAME":"ONEWEB-0464","OBJECT_ID":"2022-012AF","EPOCH":"2025-10-24T18:36:41.446944","MEAN_MOTION":13.1037402,"ECCENTRICITY":0.00017,"INCLINATION":87.877,"RA_OF_ASC_NODE":83.2179,"ARG_OF_PERICENTER":104.7981,"MEAN_ANOMALY":255.3334,"EPHEMERIS_TYPE":0,"CLASSIFICATION_TYPE":"U","NORAD_CAT_ID":51651,"ELEMENT_SET_NO":999,"REV_AT_EPOCH":17849,"BSTAR":0.0015923,"MEAN_MOTION_DOT":5.69e-6,"MEAN_MOTION_DDOT":0},{"OBJECT_NAME":"ONEWEB-0468","OBJECT_ID":"2022-012AG","EPOCH":"2025-10-24T18:46:15.229344","MEAN_MOTION":13.10375113,"ECCENTRICITY":0.0001461,"INCLINATION":87.8767,"RA_OF_ASC_NODE":83.2089,"ARG_OF_PERICENTER":102.9527,"MEAN_ANOMALY":257.1764,"EPHEMERIS_TYPE":0,"CLASSIFICATION_TYPE":"U","NORAD_CAT_ID":51652,"ELEMENT_SET_NO":999,"REV_AT_EPOCH":17847,"BSTAR":0.0015907,"MEAN_MOTION_DOT":5.68e-6,"MEAN_MOTION_DDOT":0},{"OBJECT_NAME":"ONEWEB-0473","OBJECT_ID":"2022-012AH","EPOCH":"2025-10-24T11:04:54.799968","MEAN_MOTION":13.10375524,"ECCENTRICITY":0.0001474,"INCLINATION":87.8771,"RA_OF_ASC_NODE":83.2765,"ARG_OF_PERICENTER":97.2673,"MEAN_ANOMALY":262.8622,"EPHEMERIS_TYPE":0,"CLASSIFICATION_TYPE":"U","NORAD_CAT_ID":51653,"ELEMENT_SET_NO":999,"REV_AT_EPOCH":17843,"BSTAR":0.00085714,"MEAN_MOTION_DOT":3.12e-6,"MEAN_MOTION_DDOT":0},{"OBJECT_NAME":"ONEWEB-0474","OBJECT_ID":"2022-012AJ","EPOCH":"2025-10-24T16:22:48.788832","MEAN_MOTION":13.10375781,"ECCENTRICITY":0.0001521,"INCLINATION":87.8777,"RA_OF_ASC_NODE":83.1956,"ARG_OF_PERICENTER":105.8153,"MEAN_ANOMALY":254.3142,"EPHEMERIS_TYPE":0,"CLASSIFICATION_TYPE":"U","NORAD_CAT_ID":51654,"ELEMENT_SET_NO":999,"REV_AT_EPOCH":17845,"BSTAR":-0.00029343,"MEAN_MOTION_DOT":-9.0e-7,"MEAN_MOTION_DDOT":0},{"OBJECT_NAME":"ONEWEB-0475","OBJECT_ID":"2022-012AK","EPOCH":"2025-10-24T17:51:46.413216","MEAN_MOTION":13.17649173,"ECCENTRICITY":0.0001355,"INCLINATION":87.9111,"RA_OF_ASC_NODE":52.6987,"ARG_OF_PERICENTER":127.1999,"MEAN_ANOMALY":232.9256,"EPHEMERIS_TYPE":0,"CLASSIFICATION_TYPE":"U","NORAD_CAT_ID":51655,"ELEMENT_SET_NO":999,"REV_AT_EPOCH":18268,"BSTAR":2.7633e-5,"MEAN_MOTION_DOT":2.4e-7,"MEAN_MOTION_DDOT":0},{"OBJECT_NAME":"ONEWEB-0490","OBJECT_ID":"2022-138A","EPOCH":"2025-10-24T15:32:33.531648","MEAN_MOTION":13.19724028,"ECCENTRICITY":0.0001936,"INCLINATION":87.9256,"RA_OF_ASC_NODE":351.8137,"ARG_OF_PERICENTER":103.71,"MEAN_ANOMALY":256.4248,"EPHEMERIS_TYPE":0,"CLASSIFICATION_TYPE":"U","NORAD_CAT_ID":54113,"ELEMENT_SET_NO":999,"REV_AT_EPOCH":14576,"BSTAR":4.2005e-5,"MEAN_MOTION_DOT":3.0e-7,"MEAN_MOTION_DDOT":0},{"OBJECT_NAME":"ONEWEB-0492","OBJECT_ID":"2022-138B","EPOCH":"2025-10-24T10:41:27.528864","MEAN_MOTION":13.19726169,"ECCENTRICITY":0.0002091,"INCLINATION":87.9251,"RA_OF_ASC_NODE":351.8735,"ARG_OF_PERICENTER":102.2056,"MEAN_ANOMALY":257.9311,"EPHEMERIS_TYPE":0,"CLASSIFICATION_TYPE":"U","NORAD_CAT_ID":54114,"ELEMENT_SET_NO":999,"REV_AT_EPOCH":14574,"BSTAR":-0.00012437,"MEAN_MOTION_DOT":-3.7e-7,"MEAN_MOTION_DDOT":0}]
