ONEWEB-0446             
1 51640U 22012U   25297.68417135 -.00000044  00000+0 -16193-3 0  9995
2 51640  87.8770  83.2386 0001799  90.9390 269.1944 13.10375972178482
ONEWEB-0448             
1 51641U 22012V   25297.76551161  .00000228  00000+0  61790-3 0  9998
2 51641  87.8771  83.2220 0001563  97.1082 263.0223 13.10376083178462
ONEWEB-0449             
1 51642U 22012W   25297.69413797  .00000494  00000+0  13793-2 0  9997
2 51642  87.8773  83.2057 0001226  81.7308 278.3959 13.10375599178465
ONEWEB-0451             
1 51643U 22012X   25297.73079067  .00000000  00000+0 -32405-4 0  9998
2 51643  87.9121  52.6488 0001586  97.9983 262.1329 13.17648923182658
ONEWEB-0452             
1 51644U 22012Y   25297.72909237  .00000011  00000+0 -50697-5 0  9995
2 51644  87.9114  52.7083 0001383 101.5193 258.6094 13.17648069182664
ONEWEB-0456             
1 51646U 22012AA  25297.70409909  .00000759  00000+0  21365-2 0  9991
2 51646  87.8777  83.1693 0001667 101.0882 259.0432 13.10372846178509
ONEWEB-0457             
1 51647U 22012AB  25297.68084742 -.00000290  00000+0 -86837-3 0  9991
2 51647  87.8770  83.2270 0001581  79.5414 280.5891 13.10375580178506
ONEWEB-0458             
1 51648U 22012AC  25297.77880017  .00000687  00000+0  19310-2 0  9990
2 51648  87.8771  83.1782 0001386  95.8141 264.3145 13.10373056178470
ONEWEB-0461             
1 51649U 22012AD  25297.75103980  .00000023  00000+0  27204-4 0  9993
2 51649  87.9124  52.6593 0001758  96.0903 264.0429 13.17649259182887
ONEWEB-0463             
1 51650U 22012AE  25297.73247611  .00000012  00000+0 -33548-5 0  9991
2 51650  87.9105  52.7161 0001598 100.0187 260.1125 13.17650261182663
ONEWEB-0464             
1 51651U 22012AF  25297.77547971  .00000569  00000+0  15923-2 0  9998
2 51651  87.8770  83.2179 0001700 104.7981 255.3334 13.10374020178490
ONEWEB-0468             
1 51652U 22012AG  25297.78212071  .00000568  00000+0  15907-2 0  9991
2 51652  87.8767  83.2089 0001461 102.9527 257.1764 13.10375113178476
ONEWEB-0473             
1 51653U 22012AH  25297.46174537  .00000312  00000+0  85714-3 0  9992
2 51653  87.8771  83.2765 0001474  97.2673 262.8622 13.10375524178433
ONEWEB-0474             
1 51654U 22012AJ  25297.68250913 -.00000090  00000+0 -29343-3 0  9991
2 51654  87.8777  83.1956 0001521 105.8153 254.3142 13.10375781178453
ONEWEB-0475             
1 51655U 22012AK  25297.74428719  .00000024  00000+0  27633-4 0  9996
2 51655  87.9111  52.6987 0001355 127.1999 232.9256 13.17649173182686
ONEWEB-0490             
1 54113U 22138A   25297.64761032  .00000030  00000+0  42005-4 0  9991
2 54113  87.9256 351.8137 0001936 103.7100 256.4248 13.19724028145763
ONEWEB-0492             
1 54114U 22138B   25297.44545751 -.00000037  00000+0 -12437-3 0  9992
2 54114  87.9251 351.8735 0002091 102.2056 257.9311 13.19726169145743
